# FY3D (LEO)
1 43010U 17072A   25255.60939108  .00000055  00000+0  47868-4 0  9996
2 43010  98.9723 220.6236 0002445 105.9035 254.2410 14.19641211405600

# FY3E (LEO)
1 49008U 21062A   25255.62889405 -.00000011  00000+0  15330-4 0  9991
2 49008  98.7467 257.2192 0002144 135.7725 224.3623 14.19861489217196

# FY3F (LEO)
1 57490U 23111A   25255.61624565  .00000028  00000+0  33994-4 0  9998
2 57490  98.7196 325.3307 0001312 112.9154 247.2161 14.19858798109474

# FY3G (LEO)
1 56232U 23055A   25255.62284795  .00026455  00000+0  40281-3 0  9994
2 56232  49.9958 337.2858 0016369  89.9849 270.2995 15.54125506136864

# C2E1 (LEO)
1 44349U 19036L   25254.30991936  .00002933  00000+0  22006-3 0  9990
2 44349  23.9969 114.2164 0000860 323.6076  36.4366 14.97492546342811

# C2E2 (LEO)
1 44351U 19036N   25255.22018282  .00002617  00000+0  19356-3 0  9992
2 44351  23.9976 224.4717 0000731 316.6444  43.3999 14.97493664341885

# C2E3 (LEO)
1 44343U 19036E   25255.41056375  .00003674  00000+0  22043-3 0  9990
2 44343  23.9994 286.0887 0000868 184.0486 176.0010 15.06486987341252

# C2E4 (LEO)
1 44350U 19036M   25255.46384404  .00002768  00000+0  20625-3 0  9997
2 44350  23.9978 168.5020 0000951 317.1589  42.8838 14.97485153342400

# C2E5 (LEO)
1 44358U 19036V   25255.54436357  .00002928  00000+0  21749-3 0  9995
2 44358  24.0002 342.0601 0001317 156.4358 203.6204 14.97856094340696

# C2E6 (LEO)
1 44353U 19036Q   25255.55333044  .00002732  00000+0  20323-3 0  9990
2 44353  23.9979  43.0437 0001399   2.2586 357.7921 14.97489650340167

# G01 (GNSS)
1 62339U 24242A   25245.17131576 -.00000093  00000+0  00000+0 0  9997
2 62339  54.9541 345.8560 0007170 343.9287  18.1819  2.00559955  5480

# G02 (GNSS)
1 28474U 04045A   25255.56821853 -.00000085  00000+0  00000+0 0  9997
2 28474  55.2828 336.0744 0167560 305.9484  34.8128  2.00565180152856

# G03 (GNSS)
1 40294U 14068A   25254.22044036 -.00000042  00000+0  00000+0 0  9992
2 40294  56.7917  41.7219 0061876  69.6196 291.0494  2.00559023 79613

# G04 (GNSS)
1 43873U 18109A   25254.04269459  .00000021  00000+0  00000+0 0  9992
2 43873  55.5097 103.2068 0035105 194.5866 337.6809  2.00573771 49473

# G05 (GNSS)
1 35752U 09043A   25255.42463793 -.00000050  00000+0  00000+0 0  9999
2 35752  56.0303  38.3816 0054826  81.6210 288.5181  2.00570809117792

# G06 (GNSS)
1 39741U 14026A   25254.25637490 -.00000082  00000+0  00000+0 0  9990
2 39741  56.6169 342.3746 0035792 317.1776  42.5932  2.00567781 82940

# G07 (GNSS)
1 32711U 08012A   25253.93847845  .00000026  00000+0  00000+0 0  9996
2 32711  54.4663 161.0782 0200562 244.1839 113.7858  2.00561350128157

# G08 (GNSS)
1 40730U 15033A   25254.01706413  .00000010  00000+0  00000+0 0  9995
2 40730  54.2073 278.5861 0105602  25.3242 335.2348  2.00570267 74396

# G09 (GNSS)
1 40105U 14045A   25254.34718890  .00000016  00000+0  00000+0 0  9997
2 40105  55.1680  99.5846 0032664 116.9181 243.4955  2.00566794 80487

# G10 (GNSS)
1 41019U 15062A   25255.07210276 -.00000043  00000+0  00000+0 0  9999
2 41019  56.7679  41.5452 0106764 228.0002 131.0941  2.00566920 72251

# G11 (GNSS)
1 48859U 21054A   25254.31756368 -.00000084  00000+0  00000+0 0  9994
2 48859  55.2881 343.6664 0023182 227.9376 142.1102  2.00558098 31168

# G12 (GNSS)
1 29601U 06052A   25255.21087571  .00000054  00000+0  00000+0 0  9998
2 29601  54.9963 225.0269 0085051  86.9377 274.0150  2.00567957137833

# G13 (GNSS)
1 24876U 97035A   25254.49529566  .00000019  00000+0  00000+0 0  9993
2 24876  55.8461 109.4770 0095119  56.1634 304.8275  2.00562817206363

# G14 (GNSS)
1 46826U 20078A   25254.30316486  .00000049  00000+0  00000+0 0  9993
2 46826  54.0415 222.0900 0062648 203.5390 326.3978  2.00566895 35917

# G15 (GNSS)
1 32260U 07047A   25255.51531662  .00000002  00000+0  00000+0 0  9999
2 32260  53.8877  91.5256 0164403  83.5942 278.3418  2.00568164131246

# G16 (GNSS)
1 27663U 03005A   25254.15461477  .00000051  00000+0  00000+0 0  9999
2 27663  54.9515 226.0568 0143176  50.6271 128.1578  2.00575916165714

# G17 (GNSS)
1 28874U 05038A   25253.64155294  .00000003  00000+0  00000+0 0  9999
2 28874  55.1099 284.4482 0133721 291.2280  61.4823  2.00554296146225

# G18 (GNSS)
1 44506U 19056A   25252.50597588 -.00000076  00000+0  00000+0 0  9995
2 44506  55.7550 342.2954 0056504 195.5871 203.1478  2.00563354 44442

# G19 (GNSS)
1 28190U 04009A   25252.77379824  .00000002  00000+0  00000+0 0  9996
2 28190  55.0650 287.0055 0107478 165.2597 259.0454  2.00564321157322

# G20 (GNSS)
1 26360U 00025A   25255.12367346 -.00000063  00000+0  00000+0 0  9993
2 26360  54.9934  30.5416 0036871 234.3889 309.6694  2.00574668185698

# G21 (GNSS)
1 64202U 25116A   25255.12549346 -.00000046  00000+0  00000+0 0  9991
2 64202  55.0402  42.3393 0001945 300.4371 240.3715  2.00564298  2294

# G22 (GNSS)
1 26407U 00040A   25254.59369200  .00000053  00000+0  00000+0 0  9991
2 26407  54.9184 226.2290 0130878 299.8691  62.0948  2.00566735184361

# G23 (GNSS)
1 45854U 20041A   25253.02693436 -.00000043  00000+0  00000+0 0  9999
2 45854  56.4826  39.8338 0057294 199.8033 159.9633  2.00563968 38414

# G24 (GNSS)
1 38833U 12053A   25252.62081823  .00000031  00000+0  00000+0 0  9994
2 38833  53.5434 155.0939 0171265  62.1976 299.5872  2.00564011 93818

# G25 (GNSS)
1 36585U 10022A   25255.49133184  .00000050  00000+0  00000+0 0  9997
2 36585  54.3226 219.7500 0122426  64.2441 115.5618  2.00574360112023

# G26 (GNSS)
1 40534U 15013A   25253.85483988  .00000044  00000+0  00000+0 0  9992
2 40534  53.2206 215.7329 0102094  36.1325 324.5250  2.00567984 76220

# G27 (GNSS)
1 39166U 13023A   25252.98316474  .00000010  00000+0  00000+0 0  9991
2 39166  54.7288 280.3777 0133280  48.1447 313.0385  2.00565455 90262

# G28 (GNSS)
1 55268U 23009A   25247.57712175 -.00000004  00000+0  00000+0 0  9998
2 55268  55.0963 159.7406 0003832 341.1396 242.8208  2.00563579 19510

# G29 (GNSS)
1 32384U 07062A   25255.57741771  .00000003  00000+0  00000+0 0  9994
2 32384  55.2572 285.3015 0032613 163.2955  10.2638  2.00572766129948

# G30 (GNSS)
1 39533U 14008A   25253.97789602  .00000024  00000+0  00000+0 0  9995
2 39533  53.6194 160.7081 0078426 226.3038 133.0957  2.00568860 84080

# G31 (GNSS)
1 29486U 06042A   25248.81769156  .00000006  00000+0  00000+0 0  9999
2 29486  54.6861 162.6267 0105954  48.8947 323.0647  2.00558016138694

# G32 (GNSS)
1 41328U 16007A   25254.65519303  .00000014  00000+0  00000+0 0  9995
2 41328  55.3484 100.5115 0088526 242.5387 116.6354  2.00565452 70251

# C06 (GNSS)
1 36828U 10036A   25255.67754089 -.00000125  00000+0  00000+0 0  9999
2 36828  54.2780 165.4763 0048535 216.5889 318.4682  1.00251474 55311

# C04 (GNSS)
1 37210U 10057A   25255.47613170 -.00000117  00000+0  00000+0 0  9992
2 37210   2.9523  70.2219 0008282 169.8255  83.1590  1.00271071 54502

# C07 (GNSS)
1 37256U 10068A   25255.48996617 -.00000177  00000+0  00000+0 0  9991
2 37256  48.0485 275.2706 0048662 216.2640 143.5749  1.00260461 54013

# C14 (GNSS)
1 38775U 12050B   25253.61397302  .00000002  00000+0  00000+0 0  9996
2 38775  56.2963  72.1550 0011270 357.7292   2.3082  1.86230904 88104

# C01 (GNSS)
1 44231U 19027A   25255.63030828 -.00000253  00000+0  00000+0 0  9991
2 44231   1.4260  74.3241 0006572 261.8655  27.1550  1.00271370 23290

# C24 (GNSS)
1 43582U 18062B   25252.14271861  .00000032  00000+0  00000+0 0  9998
2 43582  54.0958 191.8494 0005677  19.0925 340.9103  1.86229577 48405

# C26 (GNSS)
1 43602U 18067A   25253.69036066  .00000038  00000+0  00000+0 0  9999
2 43602  54.1893 190.5192 0008042  29.3415 330.6961  1.86227548 47914

# C25 (GNSS)
1 43603U 18067B   25255.43552494  .00000029  00000+0  00000+0 0  9992
2 43603  54.1862 190.4243 0004737  17.7856 342.2293  1.86227041 47975

# C32 (GNSS)
1 43622U 18072A   25253.24531760  .00000005  00000+0  00000+0 0  9993
2 43622  56.3764  71.9139 0004118 322.4436  37.5716  1.86231118 47447

# C33 (GNSS)
1 43623U 18072B   25254.18469053 -.00000001  00000+0  00000+0 0  9990
2 43623  56.3792  71.8766 0003603  18.3051 341.7474  1.86231130 47452

# C35 (GNSS)
1 43647U 18078A   25253.80676976 -.00000045  00000+0  00000+0 0  9992
2 43647  54.3427 309.7706 0005787  22.9083 337.1895  1.86232160 46953

# C34 (GNSS)
1 43648U 18078B   25254.47290253 -.00000048  00000+0  00000+0 0  9990
2 43648  54.3379 309.7485 0002415  31.2131 328.8705  1.86232188 46986

# C59 (GNSS)
1 43683U 18085A   25255.54350541 -.00000283  00000+0  00000+0 0  9994
2 43683   2.8759 105.3841 0003745   9.2149 212.8999  1.00273910 25272

# C36 (GNSS)
1 43706U 18093A   25253.82058543  .00000039  00000+0  00000+0 0  9993
2 43706  54.1792 191.7747 0009073 293.4738 243.9609  1.86228073 46337

# C37 (GNSS)
1 43707U 18093B   25253.95440441  .00000039  00000+0  00000+0 0  9990
2 43707  54.1801 191.7620 0007594 324.6746  35.2669  1.86229741 46332

# C38 (GNSS)
1 44204U 19023A   25254.81141719 -.00000208  00000+0  00000+0 0  9998
2 44204  58.3064  40.5253 0025039 215.7448 145.9034  1.00271223  4425

# C39 (GNSS)
1 44337U 19035A   25247.72162405 -.00000168  00000+0  00000+0 0  9990
2 44337  55.2150 161.3741 0035069 208.7975 349.2962  1.00246132 22801

# C46 (GNSS)
1 44542U 19061A   25252.41488375  .00000034  00000+0  00000+0 0  9997
2 44542  54.4073 192.1979 0008716   1.9218 358.0642  1.86229277 40562

# C45 (GNSS)
1 44543U 19061B   25253.88757905  .00000039  00000+0  00000+0 0  9993
2 44543  54.4054 192.1167 0005691 347.6756 192.4701  1.86229305 40598

# C40 (GNSS)
1 44709U 19073A   25252.48880234 -.00000156  00000+0  00000+0 0  9998
2 44709  55.2821 283.9318 0045646 191.5070 168.4691  1.00272729 21649

# C44 (GNSS)
1 44793U 19078A   25254.94099163 -.00000050  00000+0  00000+0 0  9995
2 44793  54.1880 309.6074 0004456  29.3623 330.7301  1.86232017 39467

# C43 (GNSS)
1 44794U 19078B   25255.07654122 -.00000050  00000+0  00000+0 0  9993
2 44794  54.1603 309.5696 0002644  20.9091 339.1685  1.86227677 39478
